******** Week 553 almanac for PRN-18 ********
ID:                         18
Health:                     000
Eccentricity:               0.1108503342E-001
Time of Applicability(s):  233472.0000
Orbital Inclination(rad):   0.9377746582
Rate of Right Ascen(r/s):  -0.8596543921E-008
SQRT(A)  (m 1/2):           5153.616699
Right Ascen at Week(rad):   0.1442563653E+001
Argument of Perigee(rad):  -2.347574472
Mean Anom(rad):            -0.2723292232E+001
Af0(s):                     0.5817413330E-004
Af1(s/s):                   0.3637978807E-011
week:                        553

******** Week 553 almanac for PRN-19 ********
ID:                         19
Health:                     000
Eccentricity:               0.6312370300E-002
Time of Applicability(s):  233472.0000
Orbital Inclination(rad):   0.9579257965
Rate of Right Ascen(r/s):  -0.7908965927E-008
SQRT(A)  (m 1/2):           5153.662598
Right Ascen at Week(rad):  -0.5978959799E+000
Argument of Perigee(rad):  -0.174907088
Mean Anom(rad):             0.1477660537E+001
Af0(s):                    -0.2479553223E-004
Af1(s/s):                  -0.3637978807E-011
week:                        553

******** Week 553 almanac for PRN-20 ********
ID:                         20
Health:                     000
Eccentricity:               0.4353046417E-002
Time of Applicability(s):  233472.0000
Orbital Inclination(rad):   0.9376354218
Rate of Right Ascen(r/s):  -0.8578354027E-008
SQRT(A)  (m 1/2):           5153.581543
Right Ascen at Week(rad):   0.1388602018E+001
Argument of Perigee(rad):   1.304870486
Mean Anom(rad):            -0.2576216936E+001
Af0(s):                     0.5817413330E-004
Af1(s/s):                   0.0000000000E+000
week:                        553

******** Week 553 almanac for PRN-21 ********
ID:                         21
Health:                     000
Eccentricity:               0.1622343063E-001
Time of Applicability(s):  233472.0000
Orbital Inclination(rad):   0.9332504272
Rate of Right Ascen(r/s):  -0.7938069757E-008
SQRT(A)  (m 1/2):           5153.646484
Right Ascen at Week(rad):   0.3853025436E+000
Argument of Perigee(rad):  -2.506941795
Mean Anom(rad):            -0.1605793953E+001
Af0(s):                    -0.5054473877E-004
Af1(s/s):                  -0.3637978807E-011
week:                        553

******** Week 553 almanac for PRN-22 ********
ID:                         22
Health:                     000
Eccentricity:               0.5119800568E-002
Time of Applicability(s):  233472.0000
Orbital Inclination(rad):   0.9354496002
Rate of Right Ascen(r/s):  -0.8629285730E-008
SQRT(A)  (m 1/2):           5153.593750
Right Ascen at Week(rad):   0.1447601080E+001
Argument of Perigee(rad):  -1.915978312
Mean Anom(rad):             0.2585428357E+001
Af0(s):                     0.1754760742E-003
Af1(s/s):                   0.0000000000E+000
week:                        553

******** Week 553 almanac for PRN-23 ********
ID:                         23
Health:                     000
Eccentricity:               0.6457328796E-002
Time of Applicability(s):  233472.0000
Orbital Inclination(rad):   0.9683876038
Rate of Right Ascen(r/s):  -0.8021743270E-008
SQRT(A)  (m 1/2):           5153.659180
Right Ascen at Week(rad):   0.2474483609E+001
Argument of Perigee(rad):   3.003072977
Mean Anom(rad):             0.9367151260E+000
Af0(s):                     0.3757476807E-003
Af1(s/s):                   0.0000000000E+000
week:                        553

******** Week 553 almanac for PRN-24 ********
ID:                         24
Health:                     000
Eccentricity:               0.5763530731E-002
Time of Applicability(s):  233472.0000
Orbital Inclination(rad):   0.9498310089
Rate of Right Ascen(r/s):  -0.7818016456E-008
SQRT(A)  (m 1/2):           5154.845703
Right Ascen at Week(rad):   0.4227300882E+000
Argument of Perigee(rad):  -0.476621628
Mean Anom(rad):             0.2632812142E+001
Af0(s):                     0.2746582031E-003
Af1(s/s):                   0.3637978807E-011
week:                        553

******** Week 553 almanac for PRN-26 ********
ID:                         26
Health:                     000
Eccentricity:               0.1941299438E-001
Time of Applicability(s):  233472.0000
Orbital Inclination(rad):   0.9910507202
Rate of Right Ascen(r/s):  -0.7748894859E-008
SQRT(A)  (m 1/2):           5152.299316
Right Ascen at Week(rad):   0.2530637622E+001
Argument of Perigee(rad):   1.073083282
Mean Anom(rad):            -0.6258870363E+000
Af0(s):                    -0.3337860107E-004
Af1(s/s):                  -0.3637978807E-011
week:                        553

******** Week 553 almanac for PRN-27 ********
ID:                         27
Health:                     000
Eccentricity:               0.2160739899E-001
Time of Applicability(s):  233472.0000
Orbital Inclination(rad):   0.9781188965
Rate of Right Ascen(r/s):  -0.7516064215E-008
SQRT(A)  (m 1/2):           5153.610352
Right Ascen at Week(rad):  -0.2823825717E+001
Argument of Perigee(rad):  -1.440598965
Mean Anom(rad):             0.1681099176E+001
Af0(s):                     0.1382827759E-003
Af1(s/s):                   0.3637978807E-011
week:                        553

******** Week 553 almanac for PRN-28 ********
ID:                         28
Health:                     000
Eccentricity:               0.1592111588E-001
Time of Applicability(s):  233472.0000
Orbital Inclination(rad):   0.9692497253
Rate of Right Ascen(r/s):  -0.8109054761E-008
SQRT(A)  (m 1/2):           5153.604492
Right Ascen at Week(rad):  -0.1688707590E+001
Argument of Perigee(rad):  -1.962276816
Mean Anom(rad):             0.2739227891E+001
Af0(s):                    -0.1907348633E-004
Af1(s/s):                   0.0000000000E+000
week:                        553

******** Week 553 almanac for PRN-29 ********
ID:                         29
Health:                     000
Eccentricity:               0.3017902374E-002
Time of Applicability(s):  233472.0000
Orbital Inclination(rad):   0.9605617523
Rate of Right Ascen(r/s):  -0.7938069757E-008
SQRT(A)  (m 1/2):           5153.714844
Right Ascen at Week(rad):  -0.6448389292E+000
Argument of Perigee(rad):  -1.310441613
Mean Anom(rad):            -0.1403342247E+001
Af0(s):                     0.1087188721E-003
Af1(s/s):                   0.3637978807E-011
week:                        553

******** Week 553 almanac for PRN-30 ********
ID:                         30
Health:                     000
Eccentricity:               0.1203155518E-001
Time of Applicability(s):  233472.0000
Orbital Inclination(rad):   0.9550437927
Rate of Right Ascen(r/s):  -0.8240021998E-008
SQRT(A)  (m 1/2):           5153.693848
Right Ascen at Week(rad):  -0.1766563892E+001
Argument of Perigee(rad):   1.475619912
Mean Anom(rad):            -0.3071562052E+001
Af0(s):                     0.2288818359E-003
Af1(s/s):                   0.3637978807E-011
week:                        553

******** Week 553 almanac for PRN-31 ********
ID:                         31
Health:                     000
Eccentricity:               0.7535457611E-002
Time of Applicability(s):  233472.0000
Orbital Inclination(rad):   0.9765720367
Rate of Right Ascen(r/s):  -0.7559719961E-008
SQRT(A)  (m 1/2):           5153.614746
Right Ascen at Week(rad):  -0.2768045902E+001
Argument of Perigee(rad):  -1.070421219
Mean Anom(rad):            -0.7200571299E+000
Af0(s):                    -0.4482269287E-004
Af1(s/s):                   0.3637978807E-011
week:                        553

******** Week 553 almanac for PRN-32 ********
ID:                         32
Health:                     000
Eccentricity:               0.1270723343E-001
Time of Applicability(s):  233472.0000
Orbital Inclination(rad):   0.9595317841
Rate of Right Ascen(r/s):  -0.8378265193E-008
SQRT(A)  (m 1/2):           5153.712402
Right Ascen at Week(rad):   0.1504701138E+001
Argument of Perigee(rad):  -0.999958873
Mean Anom(rad):             0.1100844145E+000
Af0(s):                     0.6294250488E-004
Af1(s/s):                  -0.7275957614E-011
week:                        553

